{"type": "FeatureCollection", "features": [ {"type": "Feature", "properties": {"norad_id": 31365, "name": "FENGYUN 1C DEB", "group": "fengyun-1c-debris", "lat": 4.998471883516526, "lon": -110.33348956441904, "alt_km": 736.7058762714023, "timestamp": "2025-12-09T21:34:11.689995+00:00", "meta": {"OBJECT_NAME": "FENGYUN 1C DEB", "OBJECT_ID": "1999-025BRV", "EPOCH": "2025-12-09T04:06:08.460864", "MEAN_MOTION": 14.41765907, "ECCENTRICITY": 0.00421736, "INCLINATION": 98.6742, "RA_OF_ASC_NODE": 68.1624, "ARG_OF_PERICENTER": 229.9692, "MEAN_ANOMALY": 129.7793, "EPHEMERIS_TYPE": 0, "CLASSIFICATION_TYPE": "U", "NORAD_CAT_ID": 31365, "ELEMENT_SET_NO": 999, "REV_AT_EPOCH": 96577, "BSTAR": 0.0026032691, "MEAN_MOTION_DOT": 8.554e-05, "MEAN_MOTION_DDOT": 0}, "tle": {"line1": "1 31365U 99025BRV 25343.17093126  .00008554  00000+0  26033-2 0  9996", "line2": "2 31365  98.6742  68.1624 0042173 229.9692 129.7793 14.41765907965775"}}, "geometry": {"type": "Point", "coordinates": [-110.33348956441904, 4.998471883516526]}}, {"type": "Feature", "properties": {"norad_id": 31367, "name": "FENGYUN 1C DEB", "group": "fengyun-1c-debris", "lat": 18.951757091165625, "lon": -124.9627525114776, "alt_km": 663.604775906535, "timestamp": "2025-12-09T21:34:11.690007+00:00", "meta": {"OBJECT_NAME": "FENGYUN 1C DEB", "OBJECT_ID": "1999-025BRX", "EPOCH": "2025-12-09T03:56:51.981792", "MEAN_MOTION": 14.4746089, "ECCENTRICITY": 0.00996107, "INCLINATION": 98.7455, "RA_OF_ASC_NODE": 237.3085, "ARG_OF_PERICENTER": 27.0536, "MEAN_ANOMALY": 128.4488, "EPHEMERIS_TYPE": 0, "CLASSIFICATION_TYPE": "U", "NORAD_CAT_ID": 31367, "ELEMENT_SET_NO": 999, "REV_AT_EPOCH": 98414, "BSTAR": 0.0007892667, "MEAN_MOTION_DOT": 3.034e-05, "MEAN_MOTION_DDOT": 0}, "tle": {"line1": "1 31367U 99025BRX 25343.16449053  .00003034  00000+0  78927-3 0  9999", "line2": "2 31367  98.7455 237.3085 0099610  27.0536 128.4488 14.47460890984140"}}, "geometry": {"type": "Point", "coordinates": [-124.9627525114776, 18.951757091165625]}}, {"type": "Feature", "properties": {"norad_id": 31369, "name": "FENGYUN 1C DEB", "group": "fengyun-1c-debris", "lat": -3.5854976848514943, "lon": -34.20590785385229, "alt_km": 804.4012372952293, "timestamp": "2025-12-09T21:34:11.690017+00:00", "meta": {"OBJECT_NAME": "FENGYUN 1C DEB", "OBJECT_ID": "1999-025BRZ", "EPOCH": "2025-12-02T05:15:55.988064", "MEAN_MOTION": 14.19388452, "ECCENTRICITY": 0.005489, "INCLINATION": 98.6175, "RA_OF_ASC_NODE": 317.7793, "ARG_OF_PERICENTER": 330.1727, "MEAN_ANOMALY": 47.9039, "EPHEMERIS_TYPE": 0, "CLASSIFICATION_TYPE": "U", "NORAD_CAT_ID": 31369, "ELEMENT_SET_NO": 999, "REV_AT_EPOCH": 64178, "BSTAR": 0.00040201, "MEAN_MOTION_DOT": 8.15e-06, "MEAN_MOTION_DDOT": 0}, "tle": {"line1": "1 31369U 99025BRZ 25336.21939801  .00000815  00000+0  40201-3 0  9992", "line2": "2 31369  98.6175 317.7793 0054890 330.1727  47.9039 14.19388452641789"}}, "geometry": {"type": "Point", "coordinates": [-34.20590785385229, -3.5854976848514943]}}, {"type": "Feature", "properties": {"norad_id": 31370, "name": "FENGYUN 1C DEB", "group": "fengyun-1c-debris", "lat": -48.42510343997505, "lon": 153.9860048947472, "alt_km": 861.3323590638001, "timestamp": "2025-12-09T21:34:11.690027+00:00", "meta": {"OBJECT_NAME": "FENGYUN 1C DEB", "OBJECT_ID": "1999-025BSA", "EPOCH": "2025-12-09T10:15:45.050400", "MEAN_MOTION": 14.0970042, "ECCENTRICITY": 0.00335624, "INCLINATION": 98.7542, "RA_OF_ASC_NODE": 343.5312, "ARG_OF_PERICENTER": 306.6769, "MEAN_ANOMALY": 53.1319, "EPHEMERIS_TYPE": 0, "CLASSIFICATION_TYPE": "U", "NORAD_CAT_ID": 31370, "ELEMENT_SET_NO": 999, "REV_AT_EPOCH": 96247, "BSTAR": 0.00064849325, "MEAN_MOTION_DOT": 1.1e-05, "MEAN_MOTION_DDOT": 0}, "tle": {"line1": "1 31370U 99025BSA 25343.42760475  .00001100  00000+0  64849-3 0  9996", "line2": "2 31370  98.7542 343.5312 0033562 306.6769  53.1319 14.09700420962475"}}, "geometry": {"type": "Point", "coordinates": [153.9860048947472, -48.42510343997505]}}, {"type": "Feature", "properties": {"norad_id": 31371, "name": "FENGYUN 1C DEB", "group": "fengyun-1c-debris", "lat": -4.142516401076829, "lon": -163.6531743802376, "alt_km": 862.6420156571639, "timestamp": "2025-12-09T21:34:11.690039+00:00", "meta": {"OBJECT_NAME": "FENGYUN 1C DEB", "OBJECT_ID": "1999-025BSB", "EPOCH": "2025-12-03T19:21:30.444768", "MEAN_MOTION": 14.04472335, "ECCENTRICITY": 0.00776168, "INCLINATION": 98.7673, "RA_OF_ASC_NODE": 11.1049, "ARG_OF_PERICENTER": 271.8024, "MEAN_ANOMALY": 87.4256, "EPHEMERIS_TYPE": 0, "CLASSIFICATION_TYPE": "U", "NORAD_CAT_ID": 31371, "ELEMENT_SET_NO": 999, "REV_AT_EPOCH": 95621, "BSTAR": 0.0012264361, "MEAN_MOTION_DOT": 1.966e-05, "MEAN_MOTION_DDOT": 0}, "tle": {"line1": "1 31371U 99025BSB 25337.80660237  .00001966  00000+0  12264-2 0  9990", "line2": "2 31371  98.7673  11.1049 0077616 271.8024  87.4256 14.04472335956212"}}, "geometry": {"type": "Point", "coordinates": [-163.6531743802376, -4.142516401076829]}}, {"type": "Feature", "properties": {"norad_id": 31372, "name": "FENGYUN 1C DEB", "group": "fengyun-1c-debris", "lat": 59.217280576957606, "lon": -41.355595767067534, "alt_km": 775.2045123330108, "timestamp": "2025-12-09T21:34:11.690050+00:00", "meta": {"OBJECT_NAME": "FENGYUN 1C DEB", "OBJECT_ID": "1999-025BSC", "EPOCH": "2025-12-08T09:56:14.038368", "MEAN_MOTION": 14.26486868, "ECCENTRICITY": 0.00337538, "INCLINATION": 99.3737, "RA_OF_ASC_NODE": 333.1545, "ARG_OF_PERICENTER": 87.0517, "MEAN_ANOMALY": 273.4523, "EPHEMERIS_TYPE": 0, "CLASSIFICATION_TYPE": "U", "NORAD_CAT_ID": 31372, "ELEMENT_SET_NO": 999, "REV_AT_EPOCH": 95789, "BSTAR": 0.0022647626, "MEAN_MOTION_DOT": 5.443e-05, "MEAN_MOTION_DDOT": 0}, "tle": {"line1": "1 31372U 99025BSC 25342.41405137  .00005443  00000+0  22648-2 0  9991", "line2": "2 31372  99.3737 333.1545 0033753  87.0517 273.4523 14.26486868957896"}}, "geometry": {"type": "Point", "coordinates": [-41.355595767067534, 59.217280576957606]}}, {"type": "Feature", "properties": {"norad_id": 31376, "name": "FENGYUN 1C DEB", "group": "fengyun-1c-debris", "lat": -35.233395430784114, "lon": -93.77629921149601, "alt_km": 670.0029921928981, "timestamp": "2025-12-09T21:34:11.690059+00:00", "meta": {"OBJECT_NAME": "FENGYUN 1C DEB", "OBJECT_ID": "1999-025BSG", "EPOCH": "2025-12-09T00:22:23.317824", "MEAN_MOTION": 14.61569522, "ECCENTRICITY": 0.00495945, "INCLINATION": 98.8329, "RA_OF_ASC_NODE": 258.9756, "ARG_OF_PERICENTER": 280.7379, "MEAN_ANOMALY": 78.8239, "EPHEMERIS_TYPE": 0, "CLASSIFICATION_TYPE": "U", "NORAD_CAT_ID": 31376, "ELEMENT_SET_NO": 999, "REV_AT_EPOCH": 98088, "BSTAR": 0.0027291335, "MEAN_MOTION_DOT": 0.00013762, "MEAN_MOTION_DDOT": 0}, "tle": {"line1": "1 31376U 99025BSG 25343.01554766  .00013762  00000+0  27291-2 0  9997", "line2": "2 31376  98.8329 258.9756 0049594 280.7379  78.8239 14.61569522980881"}}, "geometry": {"type": "Point", "coordinates": [-93.77629921149601, -35.233395430784114]}}, {"type": "Feature", "properties": {"norad_id": 31378, "name": "FENGYUN 1C DEB", "group": "fengyun-1c-debris", "lat": 57.182564414291114, "lon": -144.70385122801622, "alt_km": 1060.2397572052805, "timestamp": "2025-12-09T21:34:11.690069+00:00", "meta": {"OBJECT_NAME": "FENGYUN 1C DEB", "OBJECT_ID": "1999-025BSJ", "EPOCH": "2025-12-09T03:52:37.962336", "MEAN_MOTION": 13.80067471, "ECCENTRICITY": 0.01685363, "INCLINATION": 100.7555, "RA_OF_ASC_NODE": 231.6009, "ARG_OF_PERICENTER": 206.9389, "MEAN_ANOMALY": 152.2933, "EPHEMERIS_TYPE": 0, "CLASSIFICATION_TYPE": "U", "NORAD_CAT_ID": 31378, "ELEMENT_SET_NO": 999, "REV_AT_EPOCH": 94174, "BSTAR": 0.00097204362, "MEAN_MOTION_DOT": 1.069e-05, "MEAN_MOTION_DDOT": 0}, "tle": {"line1": "1 31378U 99025BSJ 25343.16155049  .00001069  00000+0  97204-3 0  9995", "line2": "2 31378 100.7555 231.6009 0168536 206.9389 152.2933 13.80067471941741"}}, "geometry": {"type": "Point", "coordinates": [-144.70385122801622, 57.182564414291114]}}, {"type": "Feature", "properties": {"norad_id": 31381, "name": "FENGYUN 1C DEB", "group": "fengyun-1c-debris", "lat": 76.58950130426284, "lon": 28.532658939176727, "alt_km": 649.774542831572, "timestamp": "2025-12-09T21:34:11.690081+00:00", "meta": {"OBJECT_NAME": "FENGYUN 1C DEB", "OBJECT_ID": "1999-025BSM", "EPOCH": "2025-12-08T11:47:36.487392", "MEAN_MOTION": 14.37030537, "ECCENTRICITY": 0.01988044, "INCLINATION": 98.4926, "RA_OF_ASC_NODE": 65.9479, "ARG_OF_PERICENTER": 44.6419, "MEAN_ANOMALY": 317.0584, "EPHEMERIS_TYPE": 0, "CLASSIFICATION_TYPE": "U", "NORAD_CAT_ID": 31381, "ELEMENT_SET_NO": 999, "REV_AT_EPOCH": 97339, "BSTAR": 0.00056051536, "MEAN_MOTION_DOT": 2.038e-05, "MEAN_MOTION_DDOT": 0}, "tle": {"line1": "1 31381U 99025BSM 25342.49139453  .00002038  00000+0  56052-3 0  9998", "line2": "2 31381  98.4926  65.9479 0198804  44.6419 317.0584 14.37030537973396"}}, "geometry": {"type": "Point", "coordinates": [28.532658939176727, 76.58950130426284]}}, {"type": "Feature", "properties": {"norad_id": 31383, "name": "FENGYUN 1C DEB", "group": "fengyun-1c-debris", "lat": 70.12270501431708, "lon": 19.617973380349923, "alt_km": 889.3535132713832, "timestamp": "2025-12-09T21:34:11.690091+00:00", "meta": {"OBJECT_NAME": "FENGYUN 1C DEB", "OBJECT_ID": "1999-025BSP", "EPOCH": "2025-12-09T02:34:44.796288", "MEAN_MOTION": 14.05688126, "ECCENTRICITY": 0.01079363, "INCLINATION": 99.068, "RA_OF_ASC_NODE": 45.0398, "ARG_OF_PERICENTER": 327.5363, "MEAN_ANOMALY": 61.476, "EPHEMERIS_TYPE": 0, "CLASSIFICATION_TYPE": "U", "NORAD_CAT_ID": 31383, "ELEMENT_SET_NO": 999, "REV_AT_EPOCH": 95318, "BSTAR": 0.0010265056, "MEAN_MOTION_DOT": 1.718e-05, "MEAN_MOTION_DDOT": 0}, "tle": {"line1": "1 31383U 99025BSP 25343.10746292  .00001718  00000+0  10265-2 0  9993", "line2": "2 31383  99.0680  45.0398 0107936 327.5363  61.4760 14.05688126953187"}}, "geometry": {"type": "Point", "coordinates": [19.617973380349923, 70.12270501431708]}}]}